[{"OBJECT_NAME":"STARLINK-1579","OBJECT_ID":"2020-055BJ","EPOCH":"2026-03-09T10:48:51.224832","MEAN_MOTION":15.06397766,"ECCENTRICITY":0.00013841,"INCLINATION":53.0548,"RA_OF_ASC_NODE":97.6832,"ARG_OF_PERICENTER":84.3273,"MEAN_ANOMALY":275.7874,"EPHEMERIS_TYPE":0,"CLASSIFICATION_TYPE":"U","NORAD_CAT_ID":46083,"ELEMENT_SET_NO":999,"REV_AT_EPOCH":30926,"BSTAR":-4.9840105e-5,"MEAN_MOTION_DOT":-1.024e-5,"MEAN_MOTION_DDOT":0},{"OBJECT_NAME":"FENGYUN 1C DEB","OBJECT_ID":"1999-025FAR","EPOCH":"2026-03-08T03:43:29.800128","MEAN_MOTION":14.889233,"ECCENTRICITY":0.01703105,"INCLINATION":98.6941,"RA_OF_ASC_NODE":137.2071,"ARG_OF_PERICENTER":197.5148,"MEAN_ANOMALY":162.0149,"EPHEMERIS_TYPE":0,"CLASSIFICATION_TYPE":"U","NORAD_CAT_ID":47015,"ELEMENT_SET_NO":999,"REV_AT_EPOCH":65652,"BSTAR":0.0011723418,"MEAN_MOTION_DOT":0.00014397,"MEAN_MOTION_DDOT":0}]
